     2.11           N: GPS NAV DATA                         RINEX VERSION / TYPE
teqc  2019Feb25                         20221121 12:28:36UTCPGM / RUN BY / DATE
OSX ker:10.11.6|Core i5|gcc 4.3 -m64|OSX ker:10.10+|=+      COMMENT
    1.2107D-08  0.0000D+00 -1.1921D-07  0.0000D+00          ION ALPHA
    9.4208D+04  0.0000D+00 -1.9661D+05  0.0000D+00          ION BETA
    1.862645149231D-09 7.993605777301D-15   503808     1554 DELTA-UTC: A0,A1,T,W
                                                            END OF HEADER
13 09 10 21 23 59 44.0 3.057857975364D-04 2.273736754432D-13 0.000000000000D+00
    1.700000000000D+01-2.153125000000D+01 3.932663811233D-09-2.230438166588D-01
   -1.167878508568D-06 3.955841297284D-03 2.367421984673D-06 5.153638481140D+03
    3.455840000000D+05-1.862645149231D-08-8.721927843647D-01 1.303851604462D-08
    9.941222649541D-01 3.502812500000D+02 1.660609623628D+00-8.072479108300D-09
   -1.978653847446D-10 1.000000000000D+00 1.554000000000D+03 0.000000000000D+00
    2.000000000000D+00 0.000000000000D+00-1.117587089539D-08 1.700000000000D+01
    3.426360000000D+05 4.000000000000D+00
